ORBCOMM FM115           
1 41186U 15081H   24294.87419486  .00003713  00000+0  77639-3 0  9991
2 41186  46.9972  96.9588 0000494 282.4498  77.6333 14.61461065472756
ORBCOMM FM108           
1 41187U 15081J   24295.04482867  .00003316  00000+0  76300-3 0  9998
2 41187  47.0026 155.6803 0002566 270.4644  89.5948 14.57264638471984
ORBCOMM FM117           
1 41188U 15081K   24295.01104231  .00003218  00000+0  74149-3 0  9992
2 41188  46.9986 154.6817 0003019 287.4439  72.6116 14.57265121471995
ORBCOMM FM116           
1 41189U 15081L   24295.20634306  .00002337  00000+0  54871-3 0  9996
2 41189  47.0008 243.5961 0002201  13.2141 346.8801 14.57263460470853
